[{"OBJECT_NAME":"FLOCK 4G-29","OBJECT_ID":"2025-009AK","EPOCH":"2026-03-09T19:33:04.927968","MEAN_MOTION":15.27382318,"ECCENTRICITY":0.00013664,"INCLINATION":97.4058,"RA_OF_ASC_NODE":151.3683,"ARG_OF_PERICENTER":288.0502,"MEAN_ANOMALY":72.0588,"EPHEMERIS_TYPE":0,"CLASSIFICATION_TYPE":"U","NORAD_CAT_ID":62642,"ELEMENT_SET_NO":999,"REV_AT_EPOCH":6372,"BSTAR":0.0004183135,"MEAN_MOTION_DOT":0.00011147,"MEAN_MOTION_DDOT":0},{"OBJECT_NAME":"STARLINK-36117","OBJECT_ID":"2025-281T","EPOCH":"2026-03-09T04:40:41.485440","MEAN_MOTION":15.27600059,"ECCENTRICITY":0.00017098,"INCLINATION":43.0016,"RA_OF_ASC_NODE":345.9355,"ARG_OF_PERICENTER":245.5337,"MEAN_ANOMALY":114.5336,"EPHEMERIS_TYPE":0,"CLASSIFICATION_TYPE":"U","NORAD_CAT_ID":66865,"ELEMENT_SET_NO":999,"REV_AT_EPOCH":1611,"BSTAR":0.00093133944,"MEAN_MOTION_DOT":0.00025471,"MEAN_MOTION_DDOT":0}]
